KUIPER-00177            
1 67766U 26030C   26053.25002314  .00005278  00000+0  16014-3 0  9992
2 67766  51.8836 293.5199 0000842  67.4680 205.4504 15.35768459  2610
KUIPER-00178            
1 67767U 26030D   26053.25002314  .00005556  00000+0  17323-3 0  9996
2 67767  51.8834 293.5966 0005663   6.1915 229.3686 15.34785768  1995
KUIPER-00180            
1 67768U 26030E   26053.25002314  .00010550  00000+0  33856-3 0  9996
2 67768  51.8806 293.7236 0014868  19.7445 151.4813 15.32779573  1309
KUIPER-00197            
1 67769U 26030F   26053.25002314  .00006291  00000+0  18946-3 0  9997
2 67769  51.8836 293.5341 0001560  64.6599 201.2374 15.35650133  1301
KUIPER-00198            
1 67770U 26030G   26053.25002314  .00004652  00000+0  14456-3 0  9990
2 67770  51.8813 293.5583 0002797  20.6463 232.5768 15.35298164  1307
KUIPER-00199            
1 67771U 26030H   26053.25002314  .00007706  00000+0  24387-3 0  9998
2 67771  51.8808 293.6685 0010388  15.0164 183.5422 15.33695939  2635
KUIPER-00200            
1 67772U 26030J   26053.25002314  .00006140  00000+0  18163-3 0  9995
2 67772  51.8816 293.4908 0002249 149.9112 136.6605 15.36265584  2519
KUIPER-00203            
1 67773U 26030K   26053.25002314  .00007879  00000+0  25121-3 0  9998
2 67773  51.8797 293.6858 0012530  16.7965 172.1661 15.33403574  1308
KUIPER-00205            
1 67774U 26030L   26053.25002314  .00005692  00000+0  17259-3 0  9993
2 67774  51.8813 293.5394 0001839 350.2261 272.2639 15.35629134  1904
KUIPER-00208            
1 67775U 26030M   26053.25002314  .00005945  00000+0  19583-3 0  9997
2 67775  51.8831 293.7254 0014831  17.6758 155.3680 15.32815294  2463
KUIPER-00209            
1 67776U 26030N   26053.25002314  .00011687  00000+0  37405-3 0  9991
2 67776  51.8825 293.7128 0012702  18.1391 160.2533 15.32777137  2118
KUIPER-00213            
1 67777U 26030P   26053.25002314  .00009090  00000+0  29285-3 0  9994
2 67777  51.8806 293.7099 0014341  16.6943 161.1676 15.32843213  2625
