CCSDS_OMM_VERS = 2.0
CREATION_DATE  = 
ORIGINATOR     = 

OBJECT_NAME    = KUIPER-00177
OBJECT_ID      = 2026-030C
CENTER_NAME    = EARTH
REF_FRAME      = TEME
TIME_SYSTEM    = UTC
MEAN_ELEMENT_THEORY = SGP/SGP4

EPOCH          = 2026-02-22T06:00:01.999296
MEAN_MOTION    = 15.35768459
ECCENTRICITY   = .0000842
INCLINATION    = 51.8836
RA_OF_ASC_NODE = 293.5199
ARG_OF_PERICENTER = 67.4680
MEAN_ANOMALY   = 205.4504

EPHEMERIS_TYPE = 0
CLASSIFICATION_TYPE = U
NORAD_CAT_ID   = 67766
ELEMENT_SET_NO = 999
REV_AT_EPOCH   = 261
BSTAR          = .16014E-3
MEAN_MOTION_DOT = .5278E-4
MEAN_MOTION_DDOT = 0

CCSDS_OMM_VERS = 2.0
CREATION_DATE  = 
ORIGINATOR     = 

OBJECT_NAME    = KUIPER-00178
OBJECT_ID      = 2026-030D
CENTER_NAME    = EARTH
REF_FRAME      = TEME
TIME_SYSTEM    = UTC
MEAN_ELEMENT_THEORY = SGP/SGP4

EPOCH          = 2026-02-22T06:00:01.999296
MEAN_MOTION    = 15.34785768
ECCENTRICITY   = .0005663
INCLINATION    = 51.8834
RA_OF_ASC_NODE = 293.5966
ARG_OF_PERICENTER = 6.1915
MEAN_ANOMALY   = 229.3686

EPHEMERIS_TYPE = 0
CLASSIFICATION_TYPE = U
NORAD_CAT_ID   = 67767
ELEMENT_SET_NO = 999
REV_AT_EPOCH   = 199
BSTAR          = .17323E-3
MEAN_MOTION_DOT = .5556E-4
MEAN_MOTION_DDOT = 0

CCSDS_OMM_VERS = 2.0
CREATION_DATE  = 
ORIGINATOR     = 

OBJECT_NAME    = KUIPER-00180
OBJECT_ID      = 2026-030E
CENTER_NAME    = EARTH
REF_FRAME      = TEME
TIME_SYSTEM    = UTC
MEAN_ELEMENT_THEORY = SGP/SGP4

EPOCH          = 2026-02-22T06:00:01.999296
MEAN_MOTION    = 15.32779573
ECCENTRICITY   = .0014868
INCLINATION    = 51.8806
RA_OF_ASC_NODE = 293.7236
ARG_OF_PERICENTER = 19.7445
MEAN_ANOMALY   = 151.4813

EPHEMERIS_TYPE = 0
CLASSIFICATION_TYPE = U
NORAD_CAT_ID   = 67768
ELEMENT_SET_NO = 999
REV_AT_EPOCH   = 130
BSTAR          = .33856E-3
MEAN_MOTION_DOT = .1055E-3
MEAN_MOTION_DDOT = 0

CCSDS_OMM_VERS = 2.0
CREATION_DATE  = 
ORIGINATOR     = 

OBJECT_NAME    = KUIPER-00197
OBJECT_ID      = 2026-030F
CENTER_NAME    = EARTH
REF_FRAME      = TEME
TIME_SYSTEM    = UTC
MEAN_ELEMENT_THEORY = SGP/SGP4

EPOCH          = 2026-02-22T06:00:01.999296
MEAN_MOTION    = 15.35650133
ECCENTRICITY   = .000156
INCLINATION    = 51.8836
RA_OF_ASC_NODE = 293.5341
ARG_OF_PERICENTER = 64.6599
MEAN_ANOMALY   = 201.2374

EPHEMERIS_TYPE = 0
CLASSIFICATION_TYPE = U
NORAD_CAT_ID   = 67769
ELEMENT_SET_NO = 999
REV_AT_EPOCH   = 130
BSTAR          = .18946E-3
MEAN_MOTION_DOT = .6291E-4
MEAN_MOTION_DDOT = 0

CCSDS_OMM_VERS = 2.0
CREATION_DATE  = 
ORIGINATOR     = 

OBJECT_NAME    = KUIPER-00198
OBJECT_ID      = 2026-030G
CENTER_NAME    = EARTH
REF_FRAME      = TEME
TIME_SYSTEM    = UTC
MEAN_ELEMENT_THEORY = SGP/SGP4

EPOCH          = 2026-02-22T06:00:01.999296
MEAN_MOTION    = 15.35298164
ECCENTRICITY   = .0002797
INCLINATION    = 51.8813
RA_OF_ASC_NODE = 293.5583
ARG_OF_PERICENTER = 20.6463
MEAN_ANOMALY   = 232.5768

EPHEMERIS_TYPE = 0
CLASSIFICATION_TYPE = U
NORAD_CAT_ID   = 67770
ELEMENT_SET_NO = 999
REV_AT_EPOCH   = 130
BSTAR          = .14456E-3
MEAN_MOTION_DOT = .4652E-4
MEAN_MOTION_DDOT = 0

CCSDS_OMM_VERS = 2.0
CREATION_DATE  = 
ORIGINATOR     = 

OBJECT_NAME    = KUIPER-00199
OBJECT_ID      = 2026-030H
CENTER_NAME    = EARTH
REF_FRAME      = TEME
TIME_SYSTEM    = UTC
MEAN_ELEMENT_THEORY = SGP/SGP4

EPOCH          = 2026-02-22T06:00:01.999296
MEAN_MOTION    = 15.33695939
ECCENTRICITY   = .0010388
INCLINATION    = 51.8808
RA_OF_ASC_NODE = 293.6685
ARG_OF_PERICENTER = 15.0164
MEAN_ANOMALY   = 183.5422

EPHEMERIS_TYPE = 0
CLASSIFICATION_TYPE = U
NORAD_CAT_ID   = 67771
ELEMENT_SET_NO = 999
REV_AT_EPOCH   = 263
BSTAR          = .24387E-3
MEAN_MOTION_DOT = .7706E-4
MEAN_MOTION_DDOT = 0

CCSDS_OMM_VERS = 2.0
CREATION_DATE  = 
ORIGINATOR     = 

OBJECT_NAME    = KUIPER-00200
OBJECT_ID      = 2026-030J
CENTER_NAME    = EARTH
REF_FRAME      = TEME
TIME_SYSTEM    = UTC
MEAN_ELEMENT_THEORY = SGP/SGP4

EPOCH          = 2026-02-22T06:00:01.999296
MEAN_MOTION    = 15.36265584
ECCENTRICITY   = .0002249
INCLINATION    = 51.8816
RA_OF_ASC_NODE = 293.4908
ARG_OF_PERICENTER = 149.9112
MEAN_ANOMALY   = 136.6605

EPHEMERIS_TYPE = 0
CLASSIFICATION_TYPE = U
NORAD_CAT_ID   = 67772
ELEMENT_SET_NO = 999
REV_AT_EPOCH   = 251
BSTAR          = .18163E-3
MEAN_MOTION_DOT = .614E-4
MEAN_MOTION_DDOT = 0

CCSDS_OMM_VERS = 2.0
CREATION_DATE  = 
ORIGINATOR     = 

OBJECT_NAME    = KUIPER-00203
OBJECT_ID      = 2026-030K
CENTER_NAME    = EARTH
REF_FRAME      = TEME
TIME_SYSTEM    = UTC
MEAN_ELEMENT_THEORY = SGP/SGP4

EPOCH          = 2026-02-22T06:00:01.999296
MEAN_MOTION    = 15.33403574
ECCENTRICITY   = .001253
INCLINATION    = 51.8797
RA_OF_ASC_NODE = 293.6858
ARG_OF_PERICENTER = 16.7965
MEAN_ANOMALY   = 172.1661

EPHEMERIS_TYPE = 0
CLASSIFICATION_TYPE = U
NORAD_CAT_ID   = 67773
ELEMENT_SET_NO = 999
REV_AT_EPOCH   = 130
BSTAR          = .25121E-3
MEAN_MOTION_DOT = .7879E-4
MEAN_MOTION_DDOT = 0

CCSDS_OMM_VERS = 2.0
CREATION_DATE  = 
ORIGINATOR     = 

OBJECT_NAME    = KUIPER-00205
OBJECT_ID      = 2026-030L
CENTER_NAME    = EARTH
REF_FRAME      = TEME
TIME_SYSTEM    = UTC
MEAN_ELEMENT_THEORY = SGP/SGP4

EPOCH          = 2026-02-22T06:00:01.999296
MEAN_MOTION    = 15.35629134
ECCENTRICITY   = .0001839
INCLINATION    = 51.8813
RA_OF_ASC_NODE = 293.5394
ARG_OF_PERICENTER = 350.2261
MEAN_ANOMALY   = 272.2639

EPHEMERIS_TYPE = 0
CLASSIFICATION_TYPE = U
NORAD_CAT_ID   = 67774
ELEMENT_SET_NO = 999
REV_AT_EPOCH   = 190
BSTAR          = .17259E-3
MEAN_MOTION_DOT = .5692E-4
MEAN_MOTION_DDOT = 0

CCSDS_OMM_VERS = 2.0
CREATION_DATE  = 
ORIGINATOR     = 

OBJECT_NAME    = KUIPER-00208
OBJECT_ID      = 2026-030M
CENTER_NAME    = EARTH
REF_FRAME      = TEME
TIME_SYSTEM    = UTC
MEAN_ELEMENT_THEORY = SGP/SGP4

EPOCH          = 2026-02-22T06:00:01.999296
MEAN_MOTION    = 15.32815294
ECCENTRICITY   = .0014831
INCLINATION    = 51.8831
RA_OF_ASC_NODE = 293.7254
ARG_OF_PERICENTER = 17.6758
MEAN_ANOMALY   = 155.3680

EPHEMERIS_TYPE = 0
CLASSIFICATION_TYPE = U
NORAD_CAT_ID   = 67775
ELEMENT_SET_NO = 999
REV_AT_EPOCH   = 246
BSTAR          = .19583E-3
MEAN_MOTION_DOT = .5945E-4
MEAN_MOTION_DDOT = 0

CCSDS_OMM_VERS = 2.0
CREATION_DATE  = 
ORIGINATOR     = 

OBJECT_NAME    = KUIPER-00209
OBJECT_ID      = 2026-030N
CENTER_NAME    = EARTH
REF_FRAME      = TEME
TIME_SYSTEM    = UTC
MEAN_ELEMENT_THEORY = SGP/SGP4

EPOCH          = 2026-02-22T06:00:01.999296
MEAN_MOTION    = 15.32777137
ECCENTRICITY   = .0012702
INCLINATION    = 51.8825
RA_OF_ASC_NODE = 293.7128
ARG_OF_PERICENTER = 18.1391
MEAN_ANOMALY   = 160.2533

EPHEMERIS_TYPE = 0
CLASSIFICATION_TYPE = U
NORAD_CAT_ID   = 67776
ELEMENT_SET_NO = 999
REV_AT_EPOCH   = 211
BSTAR          = .37405E-3
MEAN_MOTION_DOT = .11687E-3
MEAN_MOTION_DDOT = 0

CCSDS_OMM_VERS = 2.0
CREATION_DATE  = 
ORIGINATOR     = 

OBJECT_NAME    = KUIPER-00213
OBJECT_ID      = 2026-030P
CENTER_NAME    = EARTH
REF_FRAME      = TEME
TIME_SYSTEM    = UTC
MEAN_ELEMENT_THEORY = SGP/SGP4

EPOCH          = 2026-02-22T06:00:01.999296
MEAN_MOTION    = 15.32843213
ECCENTRICITY   = .0014341
INCLINATION    = 51.8806
RA_OF_ASC_NODE = 293.7099
ARG_OF_PERICENTER = 16.6943
MEAN_ANOMALY   = 161.1676

EPHEMERIS_TYPE = 0
CLASSIFICATION_TYPE = U
NORAD_CAT_ID   = 67777
ELEMENT_SET_NO = 999
REV_AT_EPOCH   = 262
BSTAR          = .29285E-3
MEAN_MOTION_DOT = .909E-4
MEAN_MOTION_DDOT = 0

